COSMOS 2426 (717)       
1 29671U 06062B   20015.47693661  .00000008  00000-0  10000-3 0  9991
2 29671  65.0269 273.1164 0019691 172.4600 108.6753  2.12962400101610
COSMOS 2433 (720)       
1 32275U 07052A   20015.57806699 -.00000031  00000-0  10000-3 0  9990
2 32275  65.9310  34.0491 0005488 255.6993 164.4583  2.13104443 95131
COSMOS 2432 (719)       
1 32276U 07052B   20014.87805205 -.00000029  00000-0  10000-3 0  9992
2 32276  65.9442  34.1586 0011435 317.7852 235.8748  2.13103668 95119
COSMOS 2434 (721)       
1 32393U 07065A   20015.55428091  .00000009  00000-0  00000+0 0  9998
2 32393  64.6314 271.7014 0003119  77.7562 211.5681  2.13103039 93835
COSMOS 2436 (723)       
1 32395U 07065C   20014.38150253  .00000020  00000-0  10000-3 0  9990
2 32395  64.6425 271.7910 0015382 341.3502 250.5415  2.13280920 93747
COSMOS 2456 (730)       
1 36111U 09070A   20016.34655644  .00000059  00000-0  00000+0 0  9997
2 36111  64.2151 151.3334 0002693 344.1633   6.3446  2.13102854 78517
COSMOS 2457 (733)       
1 36112U 09070B   20016.20174522  .00000059  00000-0  00000+0 0  9994
2 36112  64.1984 151.2341 0006641 149.5649 213.8588  2.13101492 78529
COSMOS 2459 (731)       
1 36400U 10007A   20016.28936506 -.00000032  00000-0  10000-3 0  9999
2 36400  65.8353  33.0159 0025756 344.0178 116.7187  2.13105147 76871
COSMOS 2461 (735)       
1 36401U 10007B   20015.56387986 -.00000031  00000-0  10000-3 0  9991
2 36401  65.8277  33.0105 0004400  54.1205 119.8874  2.13101988 76855
COSMOS 2460 (732)       
1 36402U 10007C   20016.36834661 -.00000032  00000-0  10000-3 0  9999
2 36402  65.8181  32.9452 0002655 262.1170 208.4794  2.13101460 76878
COSMOS 2464 (736)       
1 37139U 10041C   20015.57466770  .00000009  00000-0  00000+0 0  9997
2 37139  64.2338 271.2183 0027098  10.3675 159.3362  2.13100773 72926
COSMOS 2474 (742)       
1 37829U 11055A   20015.46993167  .00000063  00000-0  00000+0 0  9992
2 37829  64.5360 152.3238 0008164 240.9859  12.4465  2.13101873 64496
COSMOS 2476 (744)       
1 37867U 11064A   20016.25047104  .00000061  00000-0  00000+0 0  9991
2 37867  64.5161 152.3450 0017870 234.0396 304.3866  2.13101909 63865
COSMOS 2477 (745)       
1 37868U 11064B   20016.24279959  .00000061  00000-0  00000+0 0  9996
2 37868  64.5244 152.3988 0015455 234.7865 116.3445  2.13101784 63819
COSMOS 2475 (743)       
1 37869U 11064C   20016.28208581  .00000061  00000-0  00000+0 0  9994
2 37869  64.5323 152.3980 0018860 260.3136  78.2387  2.13101928 63821
COSMOS 2485 (747)       
1 39155U 13019A   20014.54076179  .00000063  00000-0  00000-0 0  9992
2 39155  64.6844 152.6377 0018428 229.2425 122.2045  2.13101876 52290
COSMOS 2492 (754)       
1 39620U 14012A   20015.69435266 -.00000031  00000-0  10000-3 0  9996
2 39620  65.7081  32.7729 0015006 316.6117 234.9216  2.13103389 45271
COSMOS 2500 (755)       
1 40001U 14032A   20015.60397240 -.00000031  00000-0  00000+0 0  9998
2 40001  65.6482  32.7018 0008172 222.0733 121.0151  2.13102608 43489
COSMOS 2501 (702K)      
1 40315U 14075A   20014.79927917  .00000014  00000-0  00000+0 0  9992
2 40315  63.9515 272.2467 0015522 209.4397  32.5322  2.13098484 39876
COSMOS 2514 (751)       
1 41330U 16008A   20016.32889627 -.00000033  00000-0  00000+0 0  9996
2 41330  65.4510  32.5883 0011928 224.8482 136.5077  2.13103057 30671
COSMOS 2516 (753)       
1 41554U 16032A   20014.70103613  .00000016  00000-0  00000+0 0  9995
2 41554  64.1756 272.2773 0011565 221.8810 221.2941  2.13101814 28248
COSMOS 2522 (752)       
1 42939U 17055A   20015.93807553  .00000004  00000-0  00000+0 0  9996
2 42939  64.4070 272.3697 0006961 257.4072 281.3289  2.13102135 18027
COSMOS 2527 (756)       
1 43508U 18053A   20015.53797847  .00000064  00000-0  00000+0 0  9994
2 43508  64.8489 152.4195 0006096 216.6026  46.7736  2.13102586 12309
COSMOS 2529 (757)       
1 43687U 18086A   20016.69814917 -.00000000  00000-0  00000+0 0  9995
2 43687  64.6185 272.4203 0010059 278.7170  78.7528  2.13101979  9343
COSMOS 2534 (758)       
1 44299U 19030A   20016.52025524  .00000001  00000-0  00000+0 0  9995
2 44299  64.6890 272.2299 0013577 294.8993  61.2232  2.13102000  4989
